{"type": "FeatureCollection", "features": [{"type": "Feature", "properties": {"norad_id": 2807, "name": "OPS 7218 (TRANSIT 16)", "group": "nnss", "lat": -15.13125731906771, "lon": 174.17961079133647, "alt_km": 1070.0619624537949, "timestamp": "2025-12-10T11:33:53.653912+00:00", "meta": {"OBJECT_NAME": "OPS 7218 (TRANSIT 16)", "OBJECT_ID": "1967-048A", "EPOCH": "2025-12-10T02:01:26.379840", "MEAN_MOTION": 13.50721446, "ECCENTRICITY": 0.0021846, "INCLINATION": 89.6732, "RA_OF_ASC_NODE": 354.1043, "ARG_OF_PERICENTER": 121.1834, "MEAN_ANOMALY": 301.676, "EPHEMERIS_TYPE": 0, "CLASSIFICATION_TYPE": "U", "NORAD_CAT_ID": 2807, "ELEMENT_SET_NO": 999, "REV_AT_EPOCH": 88240, "BSTAR": 0.00019664, "MEAN_MOTION_DOT": 1.37e-06, "MEAN_MOTION_DDOT": 0}, "tle": {"line1": "1 02807U 67048A   25344.08433310  .00000137  00000+0  19664-3 0  9991", "line2": "2 02807  89.6732 354.1043 0021846 121.1834 301.6760 13.50721446882403"}}, "geometry": {"type": "Point", "coordinates": [174.17961079133647, -15.13125731906771]}}, {"type": "Feature", "properties": {"norad_id": 2965, "name": "OPS 4947 (TRANSIT 17)", "group": "nnss", "lat": -57.11170991605131, "lon": -154.23106313131993, "alt_km": 1032.5838636591498, "timestamp": "2025-12-10T11:33:53.653934+00:00", "meta": {"OBJECT_NAME": "OPS 4947 (TRANSIT 17)", "OBJECT_ID": "1967-092A", "EPOCH": "2025-12-10T03:35:49.999200", "MEAN_MOTION": 13.5345247, "ECCENTRICITY": 0.0046041, "INCLINATION": 89.2498, "RA_OF_ASC_NODE": 24.6332, "ARG_OF_PERICENTER": 242.2755, "MEAN_ANOMALY": 178.1976, "EPHEMERIS_TYPE": 0, "CLASSIFICATION_TYPE": "U", "NORAD_CAT_ID": 2965, "ELEMENT_SET_NO": 999, "REV_AT_EPOCH": 87062, "BSTAR": 0.00022488, "MEAN_MOTION_DOT": 1.63e-06, "MEAN_MOTION_DDOT": 0}, "tle": {"line1": "1 02965U 67092A   25344.14988425  .00000163  00000+0  22488-3 0  9991", "line2": "2 02965  89.2498  24.6332 0046041 242.2755 178.1976 13.53452470870622"}}, "geometry": {"type": "Point", "coordinates": [-154.23106313131993, -57.11170991605131]}}, {"type": "Feature", "properties": {"norad_id": 3133, "name": "OPS 7034 (TRANSIT 18)", "group": "nnss", "lat": 40.9223275715599, "lon": -86.39157334271816, "alt_km": 1101.6117178331879, "timestamp": "2025-12-10T11:33:53.653949+00:00", "meta": {"OBJECT_NAME": "OPS 7034 (TRANSIT 18)", "OBJECT_ID": "1968-012A", "EPOCH": "2025-12-09T19:29:54.021984", "MEAN_MOTION": 13.51564681, "ECCENTRICITY": 0.0073569, "INCLINATION": 90.0276, "RA_OF_ASC_NODE": 273.6305, "ARG_OF_PERICENTER": 177.6268, "MEAN_ANOMALY": 208.6684, "EPHEMERIS_TYPE": 0, "CLASSIFICATION_TYPE": "U", "NORAD_CAT_ID": 3133, "ELEMENT_SET_NO": 999, "REV_AT_EPOCH": 56879, "BSTAR": 0.00027275, "MEAN_MOTION_DOT": 1.9e-06, "MEAN_MOTION_DDOT": 0}, "tle": {"line1": "1 03133U 68012A   25343.81243081  .00000190  00000+0  27275-3 0  9996", "line2": "2 03133  90.0276 273.6305 0073569 177.6268 208.6684 13.51564681568798"}}, "geometry": {"type": "Point", "coordinates": [-86.39157334271816, 40.9223275715599]}}, {"type": "Feature", "properties": {"norad_id": 4507, "name": "NNSS 19 (TRANSIT 19)", "group": "nnss", "lat": 16.90119667370203, "lon": -125.46949103348643, "alt_km": 1037.356043540275, "timestamp": "2025-12-10T11:33:53.653960+00:00", "meta": {"OBJECT_NAME": "NNSS 19 (TRANSIT 19)", "OBJECT_ID": "1970-067A", "EPOCH": "2025-12-10T02:35:49.672320", "MEAN_MOTION": 13.51314137, "ECCENTRICITY": 0.0170704, "INCLINATION": 90.0056, "RA_OF_ASC_NODE": 234.532, "ARG_OF_PERICENTER": 301.0696, "MEAN_ANOMALY": 57.3796, "EPHEMERIS_TYPE": 0, "CLASSIFICATION_TYPE": "U", "NORAD_CAT_ID": 4507, "ELEMENT_SET_NO": 999, "REV_AT_EPOCH": 72186, "BSTAR": 0.00026826, "MEAN_MOTION_DOT": 1.98e-06, "MEAN_MOTION_DDOT": 0}, "tle": {"line1": "1 04507U 70067A   25344.10821380  .00000198  00000+0  26826-3 0  9991", "line2": "2 04507  90.0056 234.5320 0170704 301.0696  57.3796 13.51314137721861"}}, "geometry": {"type": "Point", "coordinates": [-125.46949103348643, 16.90119667370203]}}, {"type": "Feature", "properties": {"norad_id": 6909, "name": "NNSS 20 (TRANSIT 20)", "group": "nnss", "lat": -76.15538745789225, "lon": -105.49590553428506, "alt_km": 1110.9562915032302, "timestamp": "2025-12-10T11:33:53.653971+00:00", "meta": {"OBJECT_NAME": "NNSS 20 (TRANSIT 20)", "OBJECT_ID": "1973-081A", "EPOCH": "2025-12-10T03:11:10.667040", "MEAN_MOTION": 13.71432293, "ECCENTRICITY": 0.0156619, "INCLINATION": 89.8562, "RA_OF_ASC_NODE": 255.0932, "ARG_OF_PERICENTER": 86.0337, "MEAN_ANOMALY": 275.8713, "EPHEMERIS_TYPE": 0, "CLASSIFICATION_TYPE": "U", "NORAD_CAT_ID": 6909, "ELEMENT_SET_NO": 999, "REV_AT_EPOCH": 80325, "BSTAR": 0.00032541, "MEAN_MOTION_DOT": 3.31e-06, "MEAN_MOTION_DDOT": 0}, "tle": {"line1": "1 06909U 73081A   25344.13276235  .00000331  00000+0  32541-3 0  9994", "line2": "2 06909  89.8562 255.0932 0156619  86.0337 275.8713 13.71432293803251"}}, "geometry": {"type": "Point", "coordinates": [-105.49590553428506, -76.15538745789225]}}, {"type": "Feature", "properties": {"norad_id": 10457, "name": "TRANSAT", "group": "nnss", "lat": 39.13926780350416, "lon": 78.96352691828426, "alt_km": 1090.441702138567, "timestamp": "2025-12-10T11:33:53.653982+00:00", "meta": {"OBJECT_NAME": "TRANSAT", "OBJECT_ID": "1977-106A", "EPOCH": "2025-12-10T04:33:45.230112", "MEAN_MOTION": 13.48943035, "ECCENTRICITY": 0.002515, "INCLINATION": 89.6481, "RA_OF_ASC_NODE": 78.6873, "ARG_OF_PERICENTER": 196.9393, "MEAN_ANOMALY": 226.3757, "EPHEMERIS_TYPE": 0, "CLASSIFICATION_TYPE": "U", "NORAD_CAT_ID": 10457, "ELEMENT_SET_NO": 999, "REV_AT_EPOCH": 36709, "BSTAR": 0.00019145, "MEAN_MOTION_DOT": 1.3e-06, "MEAN_MOTION_DDOT": 0}, "tle": {"line1": "1 10457U 77106A   25344.19010683  .00000130  00000+0  19145-3 0  9990", "line2": "2 10457  89.6481  78.6873 0025150 196.9393 226.3757 13.48943035367094"}}, "geometry": {"type": "Point", "coordinates": [78.96352691828426, 39.13926780350416]}}, {"type": "Feature", "properties": {"norad_id": 12458, "name": "NOVA 1", "group": "nnss", "lat": 30.591812972048768, "lon": -88.67027237750158, "alt_km": 1161.4168543647002, "timestamp": "2025-12-10T11:33:53.653993+00:00", "meta": {"OBJECT_NAME": "NOVA 1", "OBJECT_ID": "1981-044A", "EPOCH": "2025-12-09T17:32:56.257152", "MEAN_MOTION": 13.23278034, "ECCENTRICITY": 0.0015825, "INCLINATION": 89.8524, "RA_OF_ASC_NODE": 91.4277, "ARG_OF_PERICENTER": 111.3717, "MEAN_ANOMALY": 63.8823, "EPHEMERIS_TYPE": 0, "CLASSIFICATION_TYPE": "U", "NORAD_CAT_ID": 12458, "ELEMENT_SET_NO": 999, "REV_AT_EPOCH": 15146, "BSTAR": 0.00021671, "MEAN_MOTION_DOT": 1.01e-06, "MEAN_MOTION_DDOT": 0}, "tle": {"line1": "1 12458U 81044A   25343.73120668  .00000101  00000+0  21671-3 0  9998", "line2": "2 12458  89.8524  91.4277 0015825 111.3717  63.8823 13.23278034151460"}}, "geometry": {"type": "Point", "coordinates": [-88.67027237750158, 30.591812972048768]}}, {"type": "Feature", "properties": {"norad_id": 15362, "name": "NOVA 3", "group": "nnss", "lat": 23.932476408854324, "lon": 80.45385034145536, "alt_km": 1156.2832946222597, "timestamp": "2025-12-10T11:33:53.654003+00:00", "meta": {"OBJECT_NAME": "NOVA 3", "OBJECT_ID": "1984-110A", "EPOCH": "2025-12-10T04:30:11.073024", "MEAN_MOTION": 13.23044169, "ECCENTRICITY": 0.0030685, "INCLINATION": 90.1223, "RA_OF_ASC_NODE": 80.5047, "ARG_OF_PERICENTER": 339.1749, "MEAN_ANOMALY": 83.9511, "EPHEMERIS_TYPE": 0, "CLASSIFICATION_TYPE": "U", "NORAD_CAT_ID": 15362, "ELEMENT_SET_NO": 999, "REV_AT_EPOCH": 98665, "BSTAR": 0.00020671, "MEAN_MOTION_DOT": 9.5e-07, "MEAN_MOTION_DDOT": 0}, "tle": {"line1": "1 15362U 84110A   25344.18762816  .00000095  00000+0  20671-3 0  9990", "line2": "2 15362  90.1223  80.5047 0030685 339.1749  83.9511 13.23044169986652"}}, "geometry": {"type": "Point", "coordinates": [80.45385034145536, 23.932476408854324]}}, {"type": "Feature", "properties": {"norad_id": 15935, "name": "OSCAR 30", "group": "nnss", "lat": -3.2945903954121203, "lon": 99.81960840967312, "alt_km": 1132.5922487282633, "timestamp": "2025-12-10T11:33:53.654030+00:00", "meta": {"OBJECT_NAME": "OSCAR 30", "OBJECT_ID": "1985-066A", "EPOCH": "2025-12-09T18:25:09.306048", "MEAN_MOTION": 13.3607769, "ECCENTRICITY": 0.0169422, "INCLINATION": 90.165, "RA_OF_ASC_NODE": 99.7985, "ARG_OF_PERICENTER": 92.2003, "MEAN_ANOMALY": 72.3872, "EPHEMERIS_TYPE": 0, "CLASSIFICATION_TYPE": "U", "NORAD_CAT_ID": 15935, "ELEMENT_SET_NO": 999, "REV_AT_EPOCH": 96413, "BSTAR": 0.00028719, "MEAN_MOTION_DOT": 1.7e-06, "MEAN_MOTION_DDOT": 0}, "tle": {"line1": "1 15935U 85066A   25343.76746882  .00000170  00000+0  28719-3 0  9990", "line2": "2 15935  90.1650  99.7985 0169422  92.2003  72.3872 13.36077690964137"}}, "geometry": {"type": "Point", "coordinates": [99.81960840967312, -3.2945903954121203]}}, {"type": "Feature", "properties": {"norad_id": 15936, "name": "OSCAR 24", "group": "nnss", "lat": 74.50225535184269, "lon": 91.6201193319117, "alt_km": 998.6162159796795, "timestamp": "2025-12-10T11:33:53.654041+00:00", "meta": {"OBJECT_NAME": "OSCAR 24", "OBJECT_ID": "1985-066B", "EPOCH": "2025-12-09T13:41:01.087008", "MEAN_MOTION": 13.35935118, "ECCENTRICITY": 0.0170472, "INCLINATION": 90.1788, "RA_OF_ASC_NODE": 92.2493, "ARG_OF_PERICENTER": 99.1842, "MEAN_ANOMALY": 273.8521, "EPHEMERIS_TYPE": 0, "CLASSIFICATION_TYPE": "U", "NORAD_CAT_ID": 15936, "ELEMENT_SET_NO": 999, "REV_AT_EPOCH": 96601, "BSTAR": 0.00024605, "MEAN_MOTION_DOT": 1.47e-06, "MEAN_MOTION_DDOT": 0}, "tle": {"line1": "1 15936U 85066B   25343.57015147  .00000147  00000+0  24605-3 0  9997", "line2": "2 15936  90.1788  92.2493 0170472  99.1842 273.8521 13.35935118966011"}}, "geometry": {"type": "Point", "coordinates": [91.6201193319117, 74.50225535184269]}}]}